CCSDS_OMM_VERS = 2.0
CREATION_DATE  = 
ORIGINATOR     = 

OBJECT_NAME    = HULIANWANG DIGUI-114
OBJECT_ID      = 2025-287A
CENTER_NAME    = EARTH
REF_FRAME      = TEME
TIME_SYSTEM    = UTC
MEAN_ELEMENT_THEORY = SGP/SGP4

EPOCH          = 2025-12-20T09:09:14.655168
MEAN_MOTION    = 13.66161866
ECCENTRICITY   = .00096738
INCLINATION    = 86.4960
RA_OF_ASC_NODE = 343.3747
ARG_OF_PERICENTER = 185.0352
MEAN_ANOMALY   = 175.0710

EPHEMERIS_TYPE = 0
CLASSIFICATION_TYPE = U
NORAD_CAT_ID   = 66953
ELEMENT_SET_NO = 999
REV_AT_EPOCH   = 157
BSTAR          = .3033618E-5
MEAN_MOTION_DOT = .19E-6
MEAN_MOTION_DDOT = 0

CCSDS_OMM_VERS = 2.0
CREATION_DATE  = 
ORIGINATOR     = 

OBJECT_NAME    = HULIANWANG DIGUI-115
OBJECT_ID      = 2025-287B
CENTER_NAME    = EARTH
REF_FRAME      = TEME
TIME_SYSTEM    = UTC
MEAN_ELEMENT_THEORY = SGP/SGP4

EPOCH          = 2025-12-24T22:10:56.489088
MEAN_MOTION    = 13.63539042
ECCENTRICITY   = .0003385
INCLINATION    = 86.5036
RA_OF_ASC_NODE = 341.7372
ARG_OF_PERICENTER = 109.9724
MEAN_ANOMALY   = 250.1798

EPHEMERIS_TYPE = 0
CLASSIFICATION_TYPE = U
NORAD_CAT_ID   = 66954
ELEMENT_SET_NO = 999
REV_AT_EPOCH   = 219
BSTAR          = .8442119E-5
MEAN_MOTION_DOT = .23E-6
MEAN_MOTION_DDOT = 0

CCSDS_OMM_VERS = 2.0
CREATION_DATE  = 
ORIGINATOR     = 

OBJECT_NAME    = HULIANWANG DIGUI-116
OBJECT_ID      = 2025-287C
CENTER_NAME    = EARTH
REF_FRAME      = TEME
TIME_SYSTEM    = UTC
MEAN_ELEMENT_THEORY = SGP/SGP4

EPOCH          = 2025-12-24T23:52:55.515936
MEAN_MOTION    = 13.64194122
ECCENTRICITY   = .00016332
INCLINATION    = 86.4919
RA_OF_ASC_NODE = 341.6856
ARG_OF_PERICENTER = 94.3011
MEAN_ANOMALY   = 265.8333

EPHEMERIS_TYPE = 0
CLASSIFICATION_TYPE = U
NORAD_CAT_ID   = 66955
ELEMENT_SET_NO = 999
REV_AT_EPOCH   = 220
BSTAR          = .1652864E-3
MEAN_MOTION_DOT = .148E-5
MEAN_MOTION_DDOT = 0

CCSDS_OMM_VERS = 2.0
CREATION_DATE  = 
ORIGINATOR     = 

OBJECT_NAME    = HULIANWANG DIGUI-117
OBJECT_ID      = 2025-287D
CENTER_NAME    = EARTH
REF_FRAME      = TEME
TIME_SYSTEM    = UTC
MEAN_ELEMENT_THEORY = SGP/SGP4

EPOCH          = 2025-12-24T22:03:29.281824
MEAN_MOTION    = 13.64670553
ECCENTRICITY   = .00010447
INCLINATION    = 86.4976
RA_OF_ASC_NODE = 341.7257
ARG_OF_PERICENTER = 103.5815
MEAN_ANOMALY   = 256.5458

EPHEMERIS_TYPE = 0
CLASSIFICATION_TYPE = U
NORAD_CAT_ID   = 66956
ELEMENT_SET_NO = 999
REV_AT_EPOCH   = 219
BSTAR          = .9025962E-5
MEAN_MOTION_DOT = .24E-6
MEAN_MOTION_DDOT = 0

CCSDS_OMM_VERS = 2.0
CREATION_DATE  = 
ORIGINATOR     = 

OBJECT_NAME    = HULIANWANG DIGUI-118
OBJECT_ID      = 2025-287E
CENTER_NAME    = EARTH
REF_FRAME      = TEME
TIME_SYSTEM    = UTC
MEAN_ELEMENT_THEORY = SGP/SGP4

EPOCH          = 2025-12-21T00:50:13.849728
MEAN_MOTION    = 13.67510110
ECCENTRICITY   = .00054729
INCLINATION    = 86.4946
RA_OF_ASC_NODE = 343.1304
ARG_OF_PERICENTER = 170.9065
MEAN_ANOMALY   = 189.2194

EPHEMERIS_TYPE = 0
CLASSIFICATION_TYPE = U
NORAD_CAT_ID   = 66957
ELEMENT_SET_NO = 999
REV_AT_EPOCH   = 166
BSTAR          = .13223305E-3
MEAN_MOTION_DOT = .128E-5
MEAN_MOTION_DDOT = 0

CCSDS_OMM_VERS = 2.0
CREATION_DATE  = 
ORIGINATOR     = 

OBJECT_NAME    = CZ-6A R/B
OBJECT_ID      = 2025-287F
CENTER_NAME    = EARTH
REF_FRAME      = TEME
TIME_SYSTEM    = UTC
MEAN_ELEMENT_THEORY = SGP/SGP4

EPOCH          = 2025-12-27T06:21:02.012832
MEAN_MOTION    = 13.94921947
ECCENTRICITY   = .01070347
INCLINATION    = 86.5067
RA_OF_ASC_NODE = 340.5789
ARG_OF_PERICENTER = 58.4888
MEAN_ANOMALY   = 302.6688

EPHEMERIS_TYPE = 0
CLASSIFICATION_TYPE = U
NORAD_CAT_ID   = 66958
ELEMENT_SET_NO = 999
REV_AT_EPOCH   = 256
BSTAR          = .73967428E-4
MEAN_MOTION_DOT = .123E-5
MEAN_MOTION_DDOT = 0

CCSDS_OMM_VERS = 2.0
CREATION_DATE  = 
ORIGINATOR     = 

OBJECT_NAME    = STARLINK-35887
OBJECT_ID      = 2025-288A
CENTER_NAME    = EARTH
REF_FRAME      = TEME
TIME_SYSTEM    = UTC
MEAN_ELEMENT_THEORY = SGP/SGP4

EPOCH          = 2025-12-27T20:00:03.000384
MEAN_MOTION    = 15.54206181
ECCENTRICITY   = .0001689
INCLINATION    = 43.0004
RA_OF_ASC_NODE = 75.5694
ARG_OF_PERICENTER = 280.6814
MEAN_ANOMALY   = 134.1859

EPHEMERIS_TYPE = 0
CLASSIFICATION_TYPE = U
NORAD_CAT_ID   = 66959
ELEMENT_SET_NO = 999
REV_AT_EPOCH   = 425
BSTAR          = -.34027E-1
MEAN_MOTION_DOT = -.203162E-1
MEAN_MOTION_DDOT = 0

CCSDS_OMM_VERS = 2.0
CREATION_DATE  = 
ORIGINATOR     = 

OBJECT_NAME    = STARLINK-35879
OBJECT_ID      = 2025-288B
CENTER_NAME    = EARTH
REF_FRAME      = TEME
TIME_SYSTEM    = UTC
MEAN_ELEMENT_THEORY = SGP/SGP4

EPOCH          = 2025-12-27T20:00:03.000384
MEAN_MOTION    = 15.54212479
ECCENTRICITY   = .0001414
INCLINATION    = 43.0002
RA_OF_ASC_NODE = 75.5639
ARG_OF_PERICENTER = 283.8599
MEAN_ANOMALY   = 132.9236

EPHEMERIS_TYPE = 0
CLASSIFICATION_TYPE = U
NORAD_CAT_ID   = 66960
ELEMENT_SET_NO = 999
REV_AT_EPOCH   = 425
BSTAR          = -.3429E-1
MEAN_MOTION_DOT = -.2045887E-1
MEAN_MOTION_DDOT = 0

CCSDS_OMM_VERS = 2.0
CREATION_DATE  = 
ORIGINATOR     = 

OBJECT_NAME    = STARLINK-35761
OBJECT_ID      = 2025-288C
CENTER_NAME    = EARTH
REF_FRAME      = TEME
TIME_SYSTEM    = UTC
MEAN_ELEMENT_THEORY = SGP/SGP4

EPOCH          = 2025-12-27T20:00:03.000384
MEAN_MOTION    = 15.54211176
ECCENTRICITY   = .0001709
INCLINATION    = 43.0003
RA_OF_ASC_NODE = 75.5599
ARG_OF_PERICENTER = 283.1241
MEAN_ANOMALY   = 135.5742

EPHEMERIS_TYPE = 0
CLASSIFICATION_TYPE = U
NORAD_CAT_ID   = 66961
ELEMENT_SET_NO = 999
REV_AT_EPOCH   = 425
BSTAR          = -.34148E-1
MEAN_MOTION_DOT = -.2038418E-1
MEAN_MOTION_DDOT = 0

CCSDS_OMM_VERS = 2.0
CREATION_DATE  = 
ORIGINATOR     = 

OBJECT_NAME    = STARLINK-35874
OBJECT_ID      = 2025-288D
CENTER_NAME    = EARTH
REF_FRAME      = TEME
TIME_SYSTEM    = UTC
MEAN_ELEMENT_THEORY = SGP/SGP4

EPOCH          = 2025-12-27T20:00:03.000384
MEAN_MOTION    = 15.54213376
ECCENTRICITY   = .0001559
INCLINATION    = 43.0006
RA_OF_ASC_NODE = 75.5545
ARG_OF_PERICENTER = 278.2540
MEAN_ANOMALY   = 142.3650

EPHEMERIS_TYPE = 0
CLASSIFICATION_TYPE = U
NORAD_CAT_ID   = 66962
ELEMENT_SET_NO = 999
REV_AT_EPOCH   = 425
BSTAR          = -.34296E-1
MEAN_MOTION_DOT = -.2046354E-1
MEAN_MOTION_DDOT = 0

CCSDS_OMM_VERS = 2.0
CREATION_DATE  = 
ORIGINATOR     = 

OBJECT_NAME    = STARLINK-36133
OBJECT_ID      = 2025-288E
CENTER_NAME    = EARTH
REF_FRAME      = TEME
TIME_SYSTEM    = UTC
MEAN_ELEMENT_THEORY = SGP/SGP4

EPOCH          = 2025-12-27T20:00:03.000384
MEAN_MOTION    = 15.54206082
ECCENTRICITY   = .0001681
INCLINATION    = 43.0001
RA_OF_ASC_NODE = 75.5497
ARG_OF_PERICENTER = 279.6566
MEAN_ANOMALY   = 142.8810

EPHEMERIS_TYPE = 0
CLASSIFICATION_TYPE = U
NORAD_CAT_ID   = 66963
ELEMENT_SET_NO = 999
REV_AT_EPOCH   = 425
BSTAR          = -.34096E-1
MEAN_MOTION_DOT = -.2035258E-1
MEAN_MOTION_DDOT = 0

CCSDS_OMM_VERS = 2.0
CREATION_DATE  = 
ORIGINATOR     = 

OBJECT_NAME    = STARLINK-36104
OBJECT_ID      = 2025-288F
CENTER_NAME    = EARTH
REF_FRAME      = TEME
TIME_SYSTEM    = UTC
MEAN_ELEMENT_THEORY = SGP/SGP4

EPOCH          = 2025-12-27T20:00:03.000384
MEAN_MOTION    = 15.54207294
ECCENTRICITY   = .00017
INCLINATION    = 43.0002
RA_OF_ASC_NODE = 75.5444
ARG_OF_PERICENTER = 283.2055
MEAN_ANOMALY   = 141.2478

EPHEMERIS_TYPE = 0
CLASSIFICATION_TYPE = U
NORAD_CAT_ID   = 66964
ELEMENT_SET_NO = 999
REV_AT_EPOCH   = 425
BSTAR          = -.34122E-1
MEAN_MOTION_DOT = -.2036776E-1
MEAN_MOTION_DDOT = 0

