HULIANWANG DIGUI-114    
1 66953U 25287A   25354.38141962  .00000019  00000+0  30336-5 0  9995
2 66953  86.4960 343.3747 0009673 185.0352 175.0710 13.66161866  1572
HULIANWANG DIGUI-115    
1 66954U 25287B   25358.92426492  .00000023  00000+0  84421-5 0  9993
2 66954  86.5036 341.7372 0003385 109.9724 250.1798 13.63539042  2198
HULIANWANG DIGUI-116    
1 66955U 25287C   25358.99508699  .00000148  00000+0  16529-3 0  9991
2 66955  86.4919 341.6856 0001633  94.3011 265.8333 13.64194122  2201
HULIANWANG DIGUI-117    
1 66956U 25287D   25358.91908891  .00000024  00000+0  90260-5 0  9991
2 66956  86.4976 341.7257 0001044 103.5815 256.5458 13.64670553  2192
HULIANWANG DIGUI-118    
1 66957U 25287E   25355.03488252  .00000128  00000+0  13223-3 0  9993
2 66957  86.4946 343.1304 0005472 170.9065 189.2194 13.67510110  1668
CZ-6A R/B               
1 66958U 25287F   25361.26460663  .00000123  00000+0  73967-4 0  9999
2 66958  86.5067 340.5789 0107034  58.4888 302.6688 13.94921947  2565
STARLINK-35887          
1 66959U 25288A   25361.83336806 -.02031620  00000+0 -34027-1 0  9996
2 66959  43.0004  75.5694 0001689 280.6814 134.1859 15.54206181  4252
STARLINK-35879          
1 66960U 25288B   25361.83336806 -.02045887  00000+0 -34290-1 0  9990
2 66960  43.0002  75.5639 0001414 283.8599 132.9236 15.54212479  4254
STARLINK-35761          
1 66961U 25288C   25361.83336806 -.02038418  00000+0 -34148-1 0  9995
2 66961  43.0003  75.5599 0001709 283.1241 135.5742 15.54211176  4259
STARLINK-35874          
1 66962U 25288D   25361.83336806 -.02046354  00000+0 -34296-1 0  9998
2 66962  43.0006  75.5545 0001559 278.2540 142.3650 15.54213376  4252
STARLINK-36133          
1 66963U 25288E   25361.83336806 -.02035258  00000+0 -34096-1 0  9998
2 66963  43.0001  75.5497 0001681 279.6566 142.8810 15.54206082  4252
STARLINK-36104          
1 66964U 25288F   25361.83336806 -.02036776  00000+0 -34122-1 0  9995
2 66964  43.0002  75.5444 0001700 283.2055 141.2478 15.54207294  4251
